NORAD_CAT_ID,OBJECT_NAME,OBJECT_TYPE,EPOCH,MEAN_MOTION,ECCENTRICITY,INCLINATION,RA_OF_ASC_NODE,ARG_OF_PERICENTER,MEAN_ANOMALY,BSTAR,MEAN_MOTION_DOT,MEAN_MOTION_DDOT,TLE_LINE0,TLE_LINE1,TLE_LINE2,SEMIMAJOR_AXIS,PERIOD,APOGEE,PERIGEE,DECAYED
55777.0,STARLINK-5814,PAYLOAD,2024-06-21 14:21:50,14.98331078,0.0003107,70.0,2.9361,269.8268,90.2535,5.3519e-05,5.46e-06,0.0,0 STARLINK-5814,1 55777U 23028AN  24173.59849998  .00000546  00000-0  53519-4 0  9996,2 55777  70.0000   2.9361 0003107 269.8268  90.2535 14.98331078 72752,6950.19,96.107,574.214,569.895,0.0
55777.0,STARLINK-5814,PAYLOAD,2024-06-21 22:22:30,14.98334332,0.0003155,70.0,2.0942,269.7979,90.2819,8.0135e-05,8.63e-06,0.0,0 STARLINK-5814,1 55777U 23028AN  24173.93229670  .00000863  00000-0  80135-4 0  9999,2 55777  70.0000   2.0942 0003155 269.7979  90.2819 14.98334332 72806,6950.179,96.107,574.237,569.852,0.0
55777.0,STARLINK-5814,PAYLOAD,2024-06-22 12:47:43,14.98325745,0.0003147,70.0,0.5789,269.1369,90.9429,4.7466e-05,4.73e-06,0.0,0 STARLINK-5814,1 55777U 23028AN  24174.53314250  .00000473  00000-0  47466-4 0  9992,2 55777  70.0000   0.5789 0003147 269.1369  90.9429 14.98325745 72897,6950.206,96.107,574.258,569.884,0.0
55777.0,STARLINK-5814,PAYLOAD,2024-06-22 14:23:51,14.98325263,0.000315,70.0,0.4107,269.1955,90.8843,4.0094e-05,3.85e-06,0.0,0 STARLINK-5814,1 55777U 23028AN  24174.59990312  .00000385  00000-0  40094-4 0  9999,2 55777  70.0000   0.4107 0003150 269.1955  90.8843 14.98325263 72901,6950.208,96.107,574.262,569.883,0.0
55777.0,STARLINK-5814,PAYLOAD,2024-06-22 22:24:31,14.98328329,0.0003153,70.0,359.5689,268.8988,91.181,3.0708e-05,2.73e-06,0.0,0 STARLINK-5814,1 55777U 23028AN  24174.93370188  .00000273  00000-0  30708-4 0  9997,2 55777  70.0000 359.5689 0003153 268.8988  91.1810 14.98328329 72958,6950.198,96.107,574.254,569.872,0.0
55777.0,STARLINK-5814,PAYLOAD,2024-06-23 12:49:44,14.98332401,0.0003101,70.0002,358.0556,260.7821,99.2988,-4.5669e-05,-6.38e-06,0.0,0 STARLINK-5814,1 55777U 23028AN  24175.53454091 -.00000638  00000-0 -45669-4 0  9999,2 55777  70.0002 358.0556 0003101 260.7821  99.2988 14.98332401 73049,6950.185,96.107,574.206,569.895,0.0
55777.0,STARLINK-5814,PAYLOAD,2024-06-23 14:25:52,14.98332561,0.0003098,70.0002,357.8872,260.7514,99.3295,-4.1821e-05,-5.92e-06,0.0,0 STARLINK-5814,1 55777U 23028AN  24175.60130056 -.00000592  00000-0 -41821-4 0  9994,2 55777  70.0002 357.8872 0003098 260.7514  99.3295 14.98332561 73051,6950.185,96.107,574.203,569.897,0.0
55777.0,STARLINK-5814,PAYLOAD,2024-06-23 22:26:32,14.98334461,0.0003069,70.0003,357.0453,261.1418,98.9394,-1.228e-05,-2.4e-06,0.0,0 STARLINK-5814,1 55777U 23028AN  24175.93509774 -.00000240  00000-0 -12280-4 0  9994,2 55777  70.0003 357.0453 0003069 261.1418  98.9394 14.98334461 73107,6950.179,96.107,574.177,569.911,0.0
55777.0,STARLINK-5814,PAYLOAD,2024-06-24 12:51:45,14.98330839,0.0002976,70.0004,355.5297,265.7544,94.3275,3.3386e-05,3.05e-06,0.0,0 STARLINK-5814,1 55777U 23028AN  24176.53593786  .00000305  00000-0  33386-4 0  9997,2 55777  70.0004 355.5297 0002976 265.7544  94.3275 14.98330839 73195,6950.19,96.107,574.124,569.987,0.0
55777.0,STARLINK-5814,PAYLOAD,2024-06-24 14:27:53,14.98330922,0.000298,70.0004,355.3614,265.2784,94.8034,3.315e-05,3.03e-06,0.0,0 STARLINK-5814,1 55777U 23028AN  24176.60269770  .00000303  00000-0  33150-4 0  9995,2 55777  70.0004 355.3614 0002980 265.2784  94.8034 14.98330922 73205,6950.19,96.107,574.126,569.984,0.0
55777.0,STARLINK-5814,PAYLOAD,2024-06-24 22:28:33,14.98331656,0.0002965,70.0005,354.5198,265.6721,94.41,3.877e-05,3.7e-06,0.0,0 STARLINK-5814,1 55777U 23028AN  24176.93649673  .00000370  00000-0  38770-4 0  9992,2 55777  70.0005 354.5198 0002965 265.6721  94.4100 14.98331656 73252,6950.188,96.107,574.114,569.992,0.0
55777.0,STARLINK-5814,PAYLOAD,2024-06-25 12:53:46,14.98330543,0.0002902,70.0007,353.005,263.5871,96.4958,-1.5849e-05,-2.82e-06,0.0,0 STARLINK-5814,1 55777U 23028AN  24177.53733835 -.00000282  00000-0 -15849-4 0  9999,2 55777  70.0007 353.0050 0002902 263.5871  96.4958 14.98330543 73346,6950.191,96.107,574.073,570.039,0.0
55777.0,STARLINK-5814,PAYLOAD,2024-06-25 14:29:54,14.98330283,0.0002914,70.0007,352.8368,262.8052,97.2775,-1.9652e-05,-3.27e-06,0.0,0 STARLINK-5814,1 55777U 23028AN  24177.60409850 -.00000327  00000-0 -19652-4 0  9990,2 55777  70.0007 352.8368 0002914 262.8052  97.2775 14.98330283 73359,6950.192,96.107,574.082,570.032,0.0
55777.0,STARLINK-5814,PAYLOAD,2024-06-25 20:54:26,14.98330793,0.0002902,70.0008,352.1635,262.7008,97.3821,-1.1578e-05,-2.31e-06,0.0,0 STARLINK-5814,1 55777U 23028AN  24177.87113775 -.00000231  00000-0 -11578-4 0  9990,2 55777  70.0008 352.1635 0002902 262.7008  97.3821 14.98330793 73390,6950.19,96.107,574.072,570.038,0.0
55777.0,STARLINK-5814,PAYLOAD,2024-06-27 12:57:48,14.98325902,0.0003092,70.0003,347.9537,267.9352,92.1453,-4.2994e-05,-6.06e-06,0.0,0 STARLINK-5814,1 55777U 23028AN  24179.54014146 -.00000606  00000-0 -42994-4 0  9990,2 55777  70.0003 347.9537 0003092 267.9352  92.1453 14.98325902 73646,6950.206,96.107,574.22,569.922,0.0
55777.0,STARLINK-5814,PAYLOAD,2024-06-27 20:58:28,14.98327912,0.0003082,70.0004,347.1119,267.6446,92.436,-1.5893e-05,-2.83e-06,0.0,0 STARLINK-5814,1 55777U 23028AN  24179.87394003 -.00000283  00000-0 -15893-4 0  9998,2 55777  70.0004 347.1119 0003082 267.6446  92.4360 14.98327912 73693,6950.199,96.107,574.206,569.922,0.0
55777.0,STARLINK-5814,PAYLOAD,2024-06-28 12:59:48,14.98330098,0.0003156,70.0002,345.4283,267.7945,92.2852,8.2467e-05,8.91e-06,0.0,0 STARLINK-5814,1 55777U 23028AN  24180.54153486  .00000891  00000-0  82467-4 0  9996,2 55777  70.0002 345.4283 0003156 267.7945  92.2852 14.98330098 73795,6950.193,96.107,574.251,569.864,0.0
55777.0,STARLINK-5814,PAYLOAD,2024-06-28 14:35:56,14.98330126,0.0003164,70.0001,345.26,267.8163,92.2634,8.3248e-05,9e-06,0.0,0 STARLINK-5814,1 55777U 23028AN  24180.60829478  .00000900  00000-0  83248-4 0  9993,2 55777  70.0001 345.2600 0003164 267.8163  92.2634 14.98330126 73809,6950.193,96.107,574.257,569.858,0.0
55777.0,STARLINK-5814,PAYLOAD,2024-06-28 21:00:28,14.98338142,0.0003092,70.0002,344.5866,267.7086,92.3719,0.00015233,1.725e-05,0.0,0 STARLINK-5814,1 55777U 23028AN  24180.87532741  .00001725  00000-0  15233-3 0  9990,2 55777  70.0002 344.5866 0003092 267.7086  92.3719 14.98338142 73844,6950.168,96.106,574.182,569.884,0.0
55777.0,STARLINK-5814,PAYLOAD,2024-06-29 13:01:49,14.98326983,0.0002785,70.0016,342.9062,259.2438,100.8407,5.7779e-05,5.96e-06,0.0,0 STARLINK-5814,1 55777U 23028AN  24181.54293642  .00000596  00000-0  57779-4 0  9996,2 55777  70.0016 342.9062 0002785 259.2438 100.8407 14.98326983 73944,6950.202,96.107,574.003,570.132,0.0
55777.0,STARLINK-5814,PAYLOAD,2024-06-29 14:37:57,14.9832642,0.0002851,70.0013,342.7371,263.0305,97.0529,4.0072e-05,3.85e-06,0.0,0 STARLINK-5814,1 55777U 23028AN  24181.60969713  .00000385  00000-0  40072-4 0  9996,2 55777  70.0013 342.7371 0002851 263.0305  97.0529 14.98326420 73951,6950.204,96.107,574.05,570.087,0.0
55777.0,STARLINK-5814,PAYLOAD,2024-06-29 21:02:30,14.98327096,0.0002846,70.0012,342.064,265.3155,94.7679,4.3688e-05,4.28e-06,0.0,0 STARLINK-5814,1 55777U 23028AN  24181.87673760  .00000428  00000-0  43688-4 0  9993,2 55777  70.0012 342.0640 0002846 265.3155  94.7679 14.98327096 73998,6950.202,96.107,574.045,570.089,0.0
55777.0,STARLINK-5814,PAYLOAD,2024-06-30 14:39:58,14.98329817,0.0002923,70.0007,340.2112,269.6042,90.4782,-7.1898e-05,-9.51e-06,0.0,0 STARLINK-5814,1 55777U 23028AN  24182.61109898 -.00000951  00000-0 -71898-4 0  9999,2 55777  70.0007 340.2112 0002923 269.6042  90.4782 14.98329817 74109,6950.193,96.107,574.09,570.027,0.0
55777.0,STARLINK-5814,PAYLOAD,2024-06-30 21:04:30,14.98333919,0.0002863,70.0008,339.5382,266.5048,93.5784,-4.9884e-05,-6.88e-06,0.0,0 STARLINK-5814,1 55777U 23028AN  24182.87813520 -.00000688  00000-0 -49884-4 0  9998,2 55777  70.0008 339.5382 0002863 266.5048  93.5784 14.98333919 74143,6950.181,96.107,574.036,570.056,0.0
55777.0,STARLINK-5814,PAYLOAD,2024-07-01 14:41:59,14.98326571,0.0002867,70.0007,337.6861,264.598,95.4852,2.4684e-05,2.02e-06,0.0,0 STARLINK-5814,1 55777U 23028AN  24183.61249729  .00000202  00000-0  24684-4 0  9996,2 55777  70.0007 337.6861 0002867 264.5980  95.4852 14.98326571 74255,6950.203,96.107,574.061,570.076,0.0
55777.0,STARLINK-5814,PAYLOAD,2024-07-01 19:30:23,14.98329421,0.0002973,70.0011,337.1817,267.2799,92.802,6.7267e-05,7.1e-06,0.0,0 STARLINK-5814,1 55777U 23028AN  24183.81277423  .00000710  00000-0  67267-4 0  9998,2 55777  70.0011 337.1817 0002973 267.2799  92.8020 14.98329421 74280,6950.195,96.107,574.126,569.993,0.0
55777.0,STARLINK-5814,PAYLOAD,2024-07-02 03:31:04,14.98326982,0.0002796,70.001,336.3394,270.1187,89.9652,7.0473e-05,7.48e-06,0.0,0 STARLINK-5814,1 55777U 23028AN  24184.14657622  .00000748  00000-0  70473-4 0  9992,2 55777  70.0010 336.3394 0002796 270.1187  89.9652 14.98326982 74330,6950.202,96.107,574.011,570.124,0.0
55777.0,STARLINK-5814,PAYLOAD,2024-07-02 14:44:00,14.98323949,0.0002916,70.0011,335.1619,268.314,91.7685,-8.547e-06,-1.95e-06,0.0,0 STARLINK-5814,1 55777U 23028AN  24184.61390026 -.00000195  00000-0 -85470-5 0  9998,2 55777  70.0011 335.1619 0002916 268.3140  91.7685 14.98323949 74405,6950.212,96.107,574.103,570.05,0.0
55777.0,STARLINK-5814,PAYLOAD,2024-07-02 19:32:24,14.98328744,0.000298,70.0007,334.6567,268.0426,92.0391,4.2603e-06,-4.2e-07,0.0,0 STARLINK-5814,1 55777U 23028AN  24184.81417699 -.00000042  00000-0  42603-5 0  9997,2 55777  70.0007 334.6567 0002980 268.0426  92.0391 14.98328744 74430,6950.197,96.107,574.133,569.991,0.0
55777.0,STARLINK-5814,PAYLOAD,2024-07-03 13:09:53,14.98329219,0.0003008,70.0007,332.805,269.2627,90.8188,1.1786e-05,4.8e-07,0.0,0 STARLINK-5814,1 55777U 23028AN  24185.54853646  .00000048  00000-0  11786-4 0  9996,2 55777  70.0007 332.8050 0003008 269.2627  90.8188 14.98329219 74545,6950.195,96.107,574.151,569.97,0.0
